STARLINK-5290           
1 54157U 22141A   22330.58334491 -.01220170  00000+0 -28355-1 0  9997
2 54157  53.2170 358.9176 0001555  45.6382  82.3163 15.44666333  1303
STARLINK-5297           
1 54158U 22141B   22330.58334491 -.01285437  00000+0 -30604-1 0  9995
2 54158  53.2171 358.9375 0001800  29.9254  87.9857 15.44112373  1303
STARLINK-5294           
1 54159U 22141C   22330.58334491 -.01205276  00000+0 -28348-1 0  9991
2 54159  53.2172 358.9305 0001592  42.7127  78.7811 15.44279607  1300
STARLINK-5233           
1 54160U 22141D   22330.58334491  .00076743  00000+0  54691-3 0  9997
2 54160  53.2179 357.6820 0003675   5.4887  19.2575 15.73164911  1300
STARLINK-5269           
1 54161U 22141E   22330.58334491 -.01248965  00000+0 -29386-1 0  9999
2 54161  53.2170 358.9261 0001625  39.7163  83.9568 15.44372571  1306
STARLINK-5273           
1 54162U 22141F   22330.58334491 -.01220115  00000+0 -28045-1 0  9998
2 54162  53.2171 358.9093 0001772  40.8034  91.2119 15.44983155  1304
STARLINK-5161           
1 54163U 22141G   22330.58334491 -.00022352  00000+0 -15496-3 0  9999
2 54163  53.2168 357.7331 0004001   2.7145 357.6525 15.73228866  1315
STARLINK-5278           
1 54164U 22141H   22330.58334491 -.00082889  00000+0 -58973-3 0  9998
2 54164  53.2169 357.7340 0003888   9.4150 350.3363 15.73276355  1304
STARLINK-5279           
1 54165U 22141J   22330.58334491 -.01229181  00000+0 -27960-1 0  9998
2 54165  53.2172 358.9015 0001726  43.8410  92.0178 15.45307988  1301
STARLINK-5280           
1 54166U 22141K   22330.58334491 -.00044013  00000+0 -31009-3 0  9998
2 54166  53.2165 357.7290 0003558   7.1316 353.8269 15.73243518  1318
STARLINK-5243           
1 54167U 22141L   22330.58334491 -.01191160  00000+0 -25252-1 0  9997
2 54167  53.2175 358.8848 0001283  77.8831  69.7105 15.47252997  1303
STARLINK-5245           
1 54168U 22141M   22330.58334491 -.00037391  00000+0 -26242-3 0  9994
2 54168  53.2166 357.7282 0003809   8.0499 354.0189 15.73254095  1308
STARLINK-5282           
1 54169U 22141N   22330.58334491 -.00024654  00000+0 -17124-3 0  9992
2 54169  53.2165 357.7338 0003915   6.1601 352.9393 15.73254543  1304
STARLINK-5155           
1 54170U 22141P   22330.58334491  .00008349  00000+0  63801-4 0  9999
2 54170  53.2161 357.7285 0003963   4.6168 358.1120 15.73218066  1303
STARLINK-5229           
1 54171U 22141Q   22330.58334491 -.01043428  00000+0 -85091-2 0  9993
2 54171  53.2170 357.7267 0005379 285.0799  72.8927 15.72438593  1305
STARLINK-5117           
1 54172U 22141R   22330.58334491  .00016089  00000+0  11870-3 0  9999
2 54172  53.2163 357.7219 0004208   4.2254 359.7220 15.73222442  1300
STARLINK-5242           
1 54173U 22141S   22330.58334491  .00011718  00000+0  87721-4 0  9993
2 54173  53.2165 357.7283 0003797   4.7335 356.7879 15.73218263  1304
STARLINK-5248           
1 54174U 22141T   22330.58334491 -.00081058  00000+0 -57598-3 0  9998
2 54174  53.2153 356.9310 0002781  16.0392  12.1258 15.73303387  1301
STARLINK-5256           
1 54175U 22141U   22330.58334491 -.00090506  00000+0 -64477-3 0  9991
2 54175  53.2169 357.7251 0004089   9.5585 353.7880 15.73280071  1305
STARLINK-5154           
1 54176U 22141V   22330.58334491  .00010771  00000+0  81007-4 0  9995
2 54176  53.2161 357.7163 0004138   5.3052   0.9852 15.73215699  1302
STARLINK-5186           
1 54177U 22141W   22330.58334491  .00012137  00000+0  90649-4 0  9996
2 54177  53.2175 357.7244 0003859   3.9142   0.5884 15.73230710  4687
STARLINK-5164           
1 54178U 22141X   22330.58334491  .00009307  00000+0  70588-4 0  9992
2 54178  53.2161 357.7149 0004021   3.7675   3.1431 15.73223172  1305
STARLINK-5122           
1 54179U 22141Y   22330.58334491 -.00083560  00000+0 -59459-3 0  9991
2 54179  53.2167 357.7211 0003615   8.9996 356.0975 15.73278098  1303
STARLINK-5228           
1 54180U 22141Z   22330.58334491 -.00059753  00000+0 -42270-3 0  9993
2 54180  53.2162 357.7088 0003789   6.1482   3.6805 15.73278400  1308
STARLINK-5227           
1 54181U 22141AA  22330.58334491 -.00025550  00000+0 -17773-3 0  9992
2 54181  53.2165 357.7150 0004063   5.5169   1.9659 15.73242514  1308
STARLINK-5231           
1 54182U 22141AB  22330.58334491 -.00035424  00000+0 -24825-3 0  9990
2 54182  53.2153 357.7018 0003989  10.6665   1.5583 15.73259074  1304
STARLINK-5239           
1 54183U 22141AC  22330.58334491 -.00035189  00000+0 -24656-3 0  9991
2 54183  53.2172 357.7136 0003895  12.4392 356.8018 15.73260730  1300
STARLINK-5162           
1 54184U 22141AD  22330.58334491 -.00025624  00000+0 -17828-3 0  9998
2 54184  53.2151 357.7042 0003869   5.2056   5.2614 15.73240642  1309
STARLINK-5235           
1 54185U 22141AE  22330.58334491 -.00045999  00000+0 -32443-3 0  9996
2 54185  53.2166 357.7163 0004061   6.0923   2.6107 15.73234835  1302
STARLINK-5194           
1 54186U 22141AF  22330.58334491 -.00031935  00000+0 -22340-3 0  9997
2 54186  53.2157 357.6995 0003826   4.4509   9.0101 15.73246634  4910
STARLINK-5240           
1 54187U 22141AG  22330.58334491 -.00028846  00000+0 -20135-3 0  9995
2 54187  53.2170 357.7148 0003600   5.9082   2.1875 15.73241238  1306
STARLINK-5238           
1 54188U 22141AH  22330.58334491 -.00028970  00000+0 -20216-3 0  9994
2 54188  53.2141 357.6963 0003928   7.5129   5.3340 15.73247501  1303
STARLINK-5182           
1 54189U 22141AJ  22330.58334491 -.00022878  00000+0 -15849-3 0  9992
2 54189  53.2166 357.7080 0004230   1.0467   9.9596 15.73261187  1302
STARLINK-5281           
1 54190U 22141AK  22330.58334491 -.00078085  00000+0 -55511-3 0  9995
2 54190  53.2159 357.6993 0003695   7.0978   6.9418 15.73272242  1309
STARLINK-4619           
1 54191U 22141AL  22330.58334491  .00005202  00000+0  41440-4 0  9992
2 54191  53.2161 357.7042 0004074   3.8682   7.7955 15.73221812  1309
STARLINK-5268           
1 54192U 22141AM  22330.58334491 -.00011422  00000+0 -76842-4 0  9990
2 54192  53.2168 357.6903 0004096   1.7246  17.6729 15.73247228  1307
STARLINK-5263           
1 54193U 22141AN  22330.58334491  .00045711  00000+0  32834-3 0  9999
2 54193  53.2161 357.6975 0004062   6.8544   8.3400 15.73192608  1304
STARLINK-5271           
1 54194U 22141AP  22330.58334491 -.00039238  00000+0 -27570-3 0  9990
2 54194  53.2168 357.6960 0003895   3.8769  12.5413 15.73250200  1309
STARLINK-5258           
1 54195U 22141AQ  22330.58334491 -.00030829  00000+0 -21551-3 0  9991
2 54195  53.2169 357.7004 0003578   7.7118   6.9391 15.73245435  1306
STARLINK-5237           
1 54196U 22141AR  22330.58334491 -.00075685  00000+0 -53746-3 0  9992
2 54196  53.2166 357.6930 0003576   8.8655   8.7240 15.73285804  1304
STARLINK-5234           
1 54197U 22141AS  22330.58334491  .00008523  00000+0  64963-4 0  9992
2 54197  53.2174 357.6992 0003836  16.2173 359.5603 15.73246880  1300
STARLINK-5246           
1 54198U 22141AT  22330.58334491  .00006994  00000+0  54145-4 0  9994
2 54198  53.2166 357.6916 0003549  13.1964   4.9820 15.73233979  1300
STARLINK-5244           
1 54199U 22141AU  22330.58334491 -.00026562  00000+0 -18502-3 0  9996
2 54199  53.2170 357.6953 0003935   7.0687   9.9694 15.73236742  1305
STARLINK-5250           
1 54200U 22141AV  22330.58334491  .00004488  00000+0  36323-4 0  9992
2 54200  53.2140 357.6804 0003620   7.0223  12.8946 15.73247586  1308
STARLINK-5199           
1 54201U 22141AW  22330.58334491  .00012519  00000+0  93391-4 0  9995
2 54201  53.2162 357.6863 0003864   5.5805  15.0196 15.73221402  1308
STARLINK-5205           
1 54202U 22141AX  22330.58334491 -.00036710  00000+0 -25753-3 0  9993
2 54202  53.2157 357.6828 0003514   9.6915  11.4576 15.73256907  1303
STARLINK-5247           
1 54203U 22141AY  22330.58334491  .00010831  00000+0  81477-4 0  9994
2 54203  53.2158 357.6878 0003617   6.7683  12.0987 15.73204250  1301
STARLINK-5241           
1 54204U 22141AZ  22330.58334491  .00004431  00000+0  35939-4 0  9996
2 54204  53.2162 357.6799 0003632   7.3219  15.6285 15.73234239  1308
STARLINK-5249           
1 54205U 22141BA  22330.58334491  .00000221  00000+0  60160-5 0  9995
2 54205  53.2159 357.6823 0003614  13.1872   8.6174 15.73223926  1303
STARLINK-5264           
1 54206U 22141BB  22330.58334491 -.00053833  00000+0 -38030-3 0  9994
2 54206  53.2154 357.2486 0002882  14.0462 217.4419 15.73272569  1300
STARLINK-5262           
1 54207U 22141BC  22330.58334491 -.00030545  00000+0 -21372-3 0  9991
2 54207  53.2163 357.6822 0003685  10.5473  11.8947 15.73217949  1307
STARLINK-5255           
1 54208U 22141BD  22330.58334491 -.00091207  00000+0 -65009-3 0  9999
2 54208  53.2158 357.6778 0003767   8.6671  14.9347 15.73273828  1307
STARLINK-5259           
1 54209U 22141BE  22330.58334491  .00000410  00000+0  73582-5 0  9991
2 54209  53.2156 357.6760 0004068   2.5339  21.6727 15.73235477  1301
SHIYAN 20C (SY-20C)     
1 54214U 22142A   22330.36938738 -.00000136  00000+0  00000+0 0  9993
2 54214  59.9977 269.7497 0010327 305.3947  54.6124 14.27346606  4052
CZ-2D R/B               
1 54215U 22142B   22330.19815400 -.00000138  00000+0  00000+0 0  9997
2 54215  59.9055 269.1809 0023795 225.2037 134.7073 14.33514063  4047
CSS (MENGTIAN)          
1 54216U 22143A   22329.47481334  .00017136  00000+0  21828-3 0  9993
2 54216  41.4777 316.6480 0005636 309.8168 192.0015 15.58918074 89983
2022-145A               
1 54223U 22145A   22329.91049865 -.00000466  00000+0  00000+0 0  9995
2 54223  63.8197  90.7995 6997026 269.8649 188.1339  2.00652194   477
2022-145B               
1 54224U 22145B   22330.58405241  .00001041  00000+0  00000+0 0  9994
2 54224  63.8547  90.5453 6983249 270.0055  11.7142  2.02016756   485
EUTELSAT HOTBIRD 13G    
1 54225U 22146A   22327.28812892  .00000021  00000+0  00000+0 0  9990
2 54225  21.0554 316.0652 7846225 187.6322 309.5168  1.24216844   243
